[{"OBJECT_NAME":"STARLINK-3252","OBJECT_ID":"2021-115K","EPOCH":"2026-03-09T12:22:59.290464","MEAN_MOTION":15.08849963,"ECCENTRICITY":0.00012891,"INCLINATION":53.2181,"RA_OF_ASC_NODE":159.9016,"ARG_OF_PERICENTER":93.3486,"MEAN_ANOMALY":266.7653,"EPHEMERIS_TYPE":0,"CLASSIFICATION_TYPE":"U","NORAD_CAT_ID":49733,"ELEMENT_SET_NO":999,"REV_AT_EPOCH":23536,"BSTAR":6.1263281e-5,"MEAN_MOTION_DOT":6.87e-6,"MEAN_MOTION_DDOT":0},{"OBJECT_NAME":"ICON","OBJECT_ID":"2019-068A","EPOCH":"2026-03-09T22:35:01.599072","MEAN_MOTION":15.06276737,"ECCENTRICITY":0.00134076,"INCLINATION":26.9847,"RA_OF_ASC_NODE":325.9297,"ARG_OF_PERICENTER":187.0145,"MEAN_ANOMALY":173.0229,"EPHEMERIS_TYPE":0,"CLASSIFICATION_TYPE":"U","NORAD_CAT_ID":44628,"ELEMENT_SET_NO":999,"REV_AT_EPOCH":35105,"BSTAR":0.00030799545,"MEAN_MOTION_DOT":4.879e-5,"MEAN_MOTION_DDOT":0}]
